{"type": "FeatureCollection", "features": [ {"type": "Feature", "properties": {"norad_id": 34001, "name": "COSMOS 2251 DEB", "group": "cosmos-2251-debris", "lat": 58.0039486482665, "lon": -36.13998893960795, "alt_km": 751.8694286791906, "timestamp": "2025-12-04T13:52:00.834991+00:00", "meta": {"OBJECT_NAME": "COSMOS 2251 DEB", "OBJECT_ID": "1993-036GL", "EPOCH": "2025-12-04T07:36:49.053888", "MEAN_MOTION": 14.37081559, "ECCENTRICITY": 0.00195631, "INCLINATION": 74.0383, "RA_OF_ASC_NODE": 297.0745, "ARG_OF_PERICENTER": 20.1126, "MEAN_ANOMALY": 134.2602, "EPHEMERIS_TYPE": 0, "CLASSIFICATION_TYPE": "U", "NORAD_CAT_ID": 34001, "ELEMENT_SET_NO": 999, "REV_AT_EPOCH": 88025, "BSTAR": 0.00041186032, "MEAN_MOTION_DOT": 1.199e-05, "MEAN_MOTION_DDOT": 0}, "tle": {"line1": "1 34001U 93036GL  25338.31723442  .00001199  00000+0  41186-3 0  9998", "line2": "2 34001  74.0383 297.0745 0019563  20.1126 134.2602 14.37081559880259"}}, "geometry": {"type": "Point", "coordinates": [-36.13998893960795, 58.0039486482665]}}, {"type": "Feature", "properties": {"norad_id": 34003, "name": "COSMOS 2251 DEB", "group": "cosmos-2251-debris", "lat": 60.560578607788564, "lon": -30.736057551013303, "alt_km": 746.9062343320384, "timestamp": "2025-12-04T13:52:00.835001+00:00", "meta": {"OBJECT_NAME": "COSMOS 2251 DEB", "OBJECT_ID": "1993-036GN", "EPOCH": "2025-12-03T08:04:48.560160", "MEAN_MOTION": 13.84063937, "ECCENTRICITY": 0.0273684, "INCLINATION": 74.0779, "RA_OF_ASC_NODE": 300.9687, "ARG_OF_PERICENTER": 55.2105, "MEAN_ANOMALY": 307.4448, "EPHEMERIS_TYPE": 0, "CLASSIFICATION_TYPE": "U", "NORAD_CAT_ID": 34003, "ELEMENT_SET_NO": 999, "REV_AT_EPOCH": 84295, "BSTAR": 0.0024892, "MEAN_MOTION_DOT": 3.681e-05, "MEAN_MOTION_DDOT": 0}, "tle": {"line1": "1 34003U 93036GN  25337.33667315  .00003681  00000+0  24892-2 0  9999", "line2": "2 34003  74.0779 300.9687 0273684  55.2105 307.4448 13.84063937842959"}}, "geometry": {"type": "Point", "coordinates": [-30.736057551013303, 60.560578607788564]}}, {"type": "Feature", "properties": {"norad_id": 34004, "name": "COSMOS 2251 DEB", "group": "cosmos-2251-debris", "lat": -38.65304197453282, "lon": -44.82241958526913, "alt_km": 713.6088894545665, "timestamp": "2025-12-04T13:52:00.835011+00:00", "meta": {"OBJECT_NAME": "COSMOS 2251 DEB", "OBJECT_ID": "1993-036GP", "EPOCH": "2025-12-04T00:47:42.970272", "MEAN_MOTION": 14.48867664, "ECCENTRICITY": 0.0033078, "INCLINATION": 74.0351, "RA_OF_ASC_NODE": 329.434, "ARG_OF_PERICENTER": 342.8249, "MEAN_ANOMALY": 17.1788, "EPHEMERIS_TYPE": 0, "CLASSIFICATION_TYPE": "U", "NORAD_CAT_ID": 34004, "ELEMENT_SET_NO": 999, "REV_AT_EPOCH": 87904, "BSTAR": 0.0027329388, "MEAN_MOTION_DOT": 0.00010395, "MEAN_MOTION_DDOT": 0}, "tle": {"line1": "1 34004U 93036GP  25338.03313623  .00010395  00000+0  27329-2 0  9996", "line2": "2 34004  74.0351 329.4340 0033078 342.8249  17.1788 14.48867664879045"}}, "geometry": {"type": "Point", "coordinates": [-44.82241958526913, -38.65304197453282]}}, {"type": "Feature", "properties": {"norad_id": 34005, "name": "COSMOS 2251 DEB", "group": "cosmos-2251-debris", "lat": 49.79591914391549, "lon": 28.94212501587266, "alt_km": 763.6517924306036, "timestamp": "2025-12-04T13:52:00.835022+00:00", "meta": {"OBJECT_NAME": "COSMOS 2251 DEB", "OBJECT_ID": "1993-036GQ", "EPOCH": "2025-12-04T03:58:45.693696", "MEAN_MOTION": 14.4029469, "ECCENTRICITY": 0.00205107, "INCLINATION": 74.0451, "RA_OF_ASC_NODE": 229.4873, "ARG_OF_PERICENTER": 349.2706, "MEAN_ANOMALY": 162.6298, "EPHEMERIS_TYPE": 0, "CLASSIFICATION_TYPE": "U", "NORAD_CAT_ID": 34005, "ELEMENT_SET_NO": 999, "REV_AT_EPOCH": 88255, "BSTAR": 0.00021925248, "MEAN_MOTION_DOT": 6.7e-06, "MEAN_MOTION_DDOT": 0}, "tle": {"line1": "1 34005U 93036GQ  25338.16580664  .00000670  00000+0  21925-3 0  9994", "line2": "2 34005  74.0451 229.4873 0020510 349.2706 162.6298 14.40294690882550"}}, "geometry": {"type": "Point", "coordinates": [28.94212501587266, 49.79591914391549]}}, {"type": "Feature", "properties": {"norad_id": 34006, "name": "COSMOS 2251 DEB", "group": "cosmos-2251-debris", "lat": -62.407362723255105, "lon": 12.877817486838364, "alt_km": 598.40159571394, "timestamp": "2025-12-04T13:52:00.835032+00:00", "meta": {"OBJECT_NAME": "COSMOS 2251 DEB", "OBJECT_ID": "1993-036GR", "EPOCH": "2025-12-02T19:02:31.984800", "MEAN_MOTION": 14.93623986, "ECCENTRICITY": 0.0012293, "INCLINATION": 74.054, "RA_OF_ASC_NODE": 163.2959, "ARG_OF_PERICENTER": 122.0289, "MEAN_ANOMALY": 253.9852, "EPHEMERIS_TYPE": 0, "CLASSIFICATION_TYPE": "U", "NORAD_CAT_ID": 34006, "ELEMENT_SET_NO": 999, "REV_AT_EPOCH": 88520, "BSTAR": 0.0040343993, "MEAN_MOTION_DOT": 0.00042902, "MEAN_MOTION_DDOT": 0}, "tle": {"line1": "1 34006U 93036GR  25336.79342575  .00042902  00000+0  40344-2 0  9998", "line2": "2 34006  74.0540 163.2959 0012293 122.0289 253.9852 14.93623986885209"}}, "geometry": {"type": "Point", "coordinates": [12.877817486838364, -62.407362723255105]}}, {"type": "Feature", "properties": {"norad_id": 34007, "name": "COSMOS 2251 DEB", "group": "cosmos-2251-debris", "lat": -26.666405572188967, "lon": -5.665518715121438, "alt_km": 714.3266592213049, "timestamp": "2025-12-04T13:52:00.835042+00:00", "meta": {"OBJECT_NAME": "COSMOS 2251 DEB", "OBJECT_ID": "1993-036GS", "EPOCH": "2025-12-03T11:45:59.522400", "MEAN_MOTION": 14.64678866, "ECCENTRICITY": 0.00447699, "INCLINATION": 74.0201, "RA_OF_ASC_NODE": 4.7007, "ARG_OF_PERICENTER": 142.512, "MEAN_ANOMALY": 217.9186, "EPHEMERIS_TYPE": 0, "CLASSIFICATION_TYPE": "U", "NORAD_CAT_ID": 34007, "ELEMENT_SET_NO": 999, "REV_AT_EPOCH": 88944, "BSTAR": 0.00096344532, "MEAN_MOTION_DOT": 5.174e-05, "MEAN_MOTION_DDOT": 0}, "tle": {"line1": "1 34007U 93036GS  25337.49027225  .00005174  00000+0  96345-3 0  9992", "line2": "2 34007  74.0201   4.7007 0044769 142.5120 217.9186 14.64678866889446"}}, "geometry": {"type": "Point", "coordinates": [-5.665518715121438, -26.666405572188967]}}, {"type": "Feature", "properties": {"norad_id": 34008, "name": "COSMOS 2251 DEB", "group": "cosmos-2251-debris", "lat": -59.69852355373171, "lon": -165.23070900325322, "alt_km": 790.5089086917924, "timestamp": "2025-12-04T13:52:00.835051+00:00", "meta": {"OBJECT_NAME": "COSMOS 2251 DEB", "OBJECT_ID": "1993-036GT", "EPOCH": "2025-12-04T02:58:08.292576", "MEAN_MOTION": 14.33136993, "ECCENTRICITY": 0.00240057, "INCLINATION": 74.0342, "RA_OF_ASC_NODE": 346.2656, "ARG_OF_PERICENTER": 343.1754, "MEAN_ANOMALY": 79.1521, "EPHEMERIS_TYPE": 0, "CLASSIFICATION_TYPE": "U", "NORAD_CAT_ID": 34008, "ELEMENT_SET_NO": 999, "REV_AT_EPOCH": 87841, "BSTAR": 0.00022223265, "MEAN_MOTION_DOT": 5.86e-06, "MEAN_MOTION_DDOT": 0}, "tle": {"line1": "1 34008U 93036GT  25338.12370709  .00000586  00000+0  22223-3 0  9998", "line2": "2 34008  74.0342 346.2656 0024005 343.1754  79.1521 14.33136993878412"}}, "geometry": {"type": "Point", "coordinates": [-165.23070900325322, -59.69852355373171]}}, {"type": "Feature", "properties": {"norad_id": 34009, "name": "COSMOS 2251 DEB", "group": "cosmos-2251-debris", "lat": -72.31910789930973, "lon": -72.03051974491376, "alt_km": 803.6279786139312, "timestamp": "2025-12-04T13:52:00.835061+00:00", "meta": {"OBJECT_NAME": "COSMOS 2251 DEB", "OBJECT_ID": "1993-036GU", "EPOCH": "2025-12-04T07:38:58.614144", "MEAN_MOTION": 14.33212277, "ECCENTRICITY": 0.0026276, "INCLINATION": 74.0372, "RA_OF_ASC_NODE": 352.3264, "ARG_OF_PERICENTER": 64.6857, "MEAN_ANOMALY": 317.1139, "EPHEMERIS_TYPE": 0, "CLASSIFICATION_TYPE": "U", "NORAD_CAT_ID": 34009, "ELEMENT_SET_NO": 999, "REV_AT_EPOCH": 87825, "BSTAR": 0.00025170299, "MEAN_MOTION_DOT": 6.69e-06, "MEAN_MOTION_DDOT": 0}, "tle": {"line1": "1 34009U 93036GU  25338.31873396  .00000669  00000+0  25170-3 0  9996", "line2": "2 34009  74.0372 352.3264 0026276  64.6857 317.1139 14.33212277878252"}}, "geometry": {"type": "Point", "coordinates": [-72.03051974491376, -72.31910789930973]}}, {"type": "Feature", "properties": {"norad_id": 34010, "name": "COSMOS 2251 DEB", "group": "cosmos-2251-debris", "lat": -12.838387435902126, "lon": 124.14266914224525, "alt_km": 522.6701359815816, "timestamp": "2025-12-04T13:52:00.835071+00:00", "meta": {"OBJECT_NAME": "COSMOS 2251 DEB", "OBJECT_ID": "1993-036GV", "EPOCH": "2025-12-04T06:41:05.349696", "MEAN_MOTION": 15.16457386, "ECCENTRICITY": 0.00043771, "INCLINATION": 73.9997, "RA_OF_ASC_NODE": 301.0181, "ARG_OF_PERICENTER": 56.2988, "MEAN_ANOMALY": 303.8624, "EPHEMERIS_TYPE": 0, "CLASSIFICATION_TYPE": "U", "NORAD_CAT_ID": 34010, "ELEMENT_SET_NO": 999, "REV_AT_EPOCH": 89157, "BSTAR": 0.0094330418, "MEAN_MOTION_DOT": 0.00188475, "MEAN_MOTION_DDOT": 0}, "tle": {"line1": "1 34010U 93036GV  25338.27853414  .00188475  00000+0  94330-2 0  9997", "line2": "2 34010  73.9997 301.0181 0004377  56.2988 303.8624 15.16457386891579"}}, "geometry": {"type": "Point", "coordinates": [124.14266914224525, -12.838387435902126]}}, {"type": "Feature", "properties": {"norad_id": 34011, "name": "COSMOS 2251 DEB", "group": "cosmos-2251-debris", "lat": 31.21179722496432, "lon": -4.702981929255068, "alt_km": 731.1823512656465, "timestamp": "2025-12-04T13:52:00.835084+00:00", "meta": {"OBJECT_NAME": "COSMOS 2251 DEB", "OBJECT_ID": "1993-036GW", "EPOCH": "2025-12-04T02:03:32.943744", "MEAN_MOTION": 14.41704225, "ECCENTRICITY": 0.00352032, "INCLINATION": 74.0145, "RA_OF_ASC_NODE": 346.2072, "ARG_OF_PERICENTER": 72.5903, "MEAN_ANOMALY": 287.9097, "EPHEMERIS_TYPE": 0, "CLASSIFICATION_TYPE": "U", "NORAD_CAT_ID": 34011, "ELEMENT_SET_NO": 999, "REV_AT_EPOCH": 87791, "BSTAR": 0.0014391119, "MEAN_MOTION_DOT": 4.704e-05, "MEAN_MOTION_DDOT": 0}, "tle": {"line1": "1 34011U 93036GW  25338.08579796  .00004704  00000+0  14391-2 0  9996", "line2": "2 34011  74.0145 346.2072 0035203  72.5903 287.9097 14.41704225877919"}}, "geometry": {"type": "Point", "coordinates": [-4.702981929255068, 31.21179722496432]}}]}